XRISM                   
1 57800U 23137A   24082.55706968  .00007141  00000+0  55398-3 0  9993
2 57800  31.0025 203.5628 0010102  71.2856 288.8875 14.99996631 29589
